address-book,contact,directory,phonebook,organizer,records,names,numbers,addresses,email,phone,fax,work,home,mobile,office,business,personal,family,friends,colleagues,acquaintances,network,connections,rolodex,filofax,planner,schedule,communication,correspondence,messaging,notes,reminders,reference,lookup
address-book-o,contact,directory,phonebook,organizer,records,names,numbers,addresses,email,phone,fax,work,home,mobile,office,business,personal,family,friends,colleagues,acquaintances,network,connections,rolodex,filofax,planner,schedule,communication,correspondence,messaging,notes,reminders,reference,lookup
address-card,business,contact,identity,information,details,name,title,company,position,role,address,phone,email,website,social,media,profile,networking,introduction,exchange,presentation,branding,marketing,promotion,communication,correspondence,connection,relationship,acquaintance,colleague,client,customer,partner,supplier,vendor
address-card-o,business,contact,identity,information,details,name,title,company,position,role,address,phone,email,website,social,media,profile,networking,introduction,exchange,presentation,branding,marketing,promotion,communication,correspondence,connection,relationship,acquaintance,colleague,client,customer,partner,supplier,vendor
bandcamp,music,audio,streaming,platform,independent,artists,bands,albums,tracks,songs,genres,discover,listen,support,buy,download,merchandise,community,fans,followers,comments,messages,notifications,profile,stats,analytics,embed,share,promote,tour,dates,shows,events
bath,bathroom,hygiene,cleanliness,washing,bathing,shower,soap,shampoo,water,towel,relaxation,refreshment,rejuvenation,spa,bubbles,foam,suds,loofah,sponge,rubber,duck,candles,salts,oils,luxury,indulgence,pampering,self-care,routine,ritual,morning,evening,daily
bathtub,bathroom,hygiene,cleanliness,washing,bathing,shower,soap,shampoo,water,towel,relaxation,refreshment,rejuvenation,spa,bubbles,foam,suds,loofah,sponge,rubber,duck,candles,salts,oils,luxury,indulgence,pampering,self-care,routine,ritual,morning,evening,daily
drivers-license,identification,ID,document,card,permit,driving,vehicle,car,motorcycle,truck,bus,taxi,transportation,travel,age,birthday,name,address,photo,signature,expiration,renewal,test,exam,learner,provisional,commercial,endorsement,restriction,violation,suspension,revocation
drivers-license-o,identification,ID,document,card,permit,driving,vehicle,car,motorcycle,truck,bus,taxi,transportation,travel,age,birthday,name,address,photo,signature,expiration,renewal,test,exam,learner,provisional,commercial,endorsement,restriction,violation,suspension,revocation
eercast,streaming,broadcast,video,audio,live,realtime,interactive,social,media,platform,channel,host,viewer,chat,comment,react,share,follow,subscribe,notification,archive,replay,highlight,clip,edit,upload,download,embed,monetize,donate,support,community,engagement
envelope-open,mail,email,message,letter,correspondence,communication,send,receive,read,write,reply,forward,attach,document,file,image,link,newsletter,promotion,marketing,notification,update,alert,invitation,confirmation,receipt,invoice,statement,report,memo,note,postcard
envelope-open-o,mail,email,message,letter,correspondence,communication,send,receive,read,write,reply,forward,attach,document,file,image,link,newsletter,promotion,marketing,notification,update,alert,invitation,confirmation,receipt,invoice,statement,report,memo,note,postcard
etsy,handmade,vintage,craft,art,design,creative,unique,original,custom,personalized,gift,decor,jewelry,clothing,accessory,beauty,toy,supply,material,tool,pattern,tutorial,shop,seller,buyer,transaction,review,rating,favorite,collection,list,cart,checkout,shipping,return
free-code-camp,programming,coding,development,web,software,app,tutorial,course,lesson,challenge,project,curriculum,community,forum,chat,help,support,mentor,student,learner,beginner,intermediate,advanced,frontend,backend,fullstack,javascript,html,css,react,node,express,mongodb,api
grav,website,blog,publishing,platform,content,management,system,CMS,theme,template,plugin,extension,customization,design,layout,navigation,menu,header,footer,sidebar,widget,post,page,category,tag,comment,user,role,permission,setting,backup,import,export,update,upgrade
handshake-o,agreement,deal,contract,partnership,collaboration,cooperation,alliance,joint,venture,merger,acquisition,negotiation,compromise,settlement,resolution,truce,ceasefire,peace,friendship,relationship,connection,network,introduction,greeting,farewell,congratulation,appreciation,respect,trust,loyalty,commitment,promise
id-badge,identification,identity,ID,card,badge,tag,label,name,title,position,role,employee,staff,member,volunteer,visitor,guest,security,access,authorization,permission,clearance,verification,authentication,credentials,profile,photo,barcode,qrcode,rfid,nfc,pin,password,biometric
id-card,identification,identity,ID,card,document,proof,verification,authentication,name,photo,signature,address,phone,email,birthday,age,gender,nationality,citizenship,passport,driver,license,student,employee,membership,insurance,bank,credit,debit,social,security,number,tax,voter
id-card-o,identification,identity,ID,card,document,proof,verification,authentication,name,photo,signature,address,phone,email,birthday,age,gender,nationality,citizenship,passport,driver,license,student,employee,membership,insurance,bank,credit,debit,social,security,number,tax,voter
imdb,movies,films,tv,shows,series,episodes,actors,actresses,directors,producers,writers,cast,crew,ratings,reviews,trailers,clips,photos,news,awards,box,office,budget,revenue,genre,release,date,runtime,plot,summary,quotes,trivia,goofs,soundtrack,locations,production,distribution
linode,cloud,hosting,server,virtual,private,VPS,infrastructure,IaaS,platform,PaaS,computing,storage,network,bandwidth,CPU,RAM,SSD,HDD,backup,snapshot,clone,migration,scaling,load,balancing,monitoring,alert,security,firewall,SSL,DNS,domain,email,support,billing
meetup,event,gathering,meeting,conference,seminar,workshop,class,training,networking,socializing,community,group,club,organization,interest,hobby,activity,location,venue,date,time,rsvp,attendee,host,organizer,speaker,presenter,topic,agenda,schedule,discussion,Q&A,feedback,photo,video
microchip,electronics,computer,hardware,component,circuit,board,processor,CPU,memory,RAM,storage,SSD,HDD,GPU,chipset,semiconductor,transistor,diode,capacitor,resistor,inductor,sensor,actuator,power,supply,voltage,current,frequency,clock,bus,interface,pin,package
podcast,audio,radio,show,episode,series,host,guest,interview,conversation,discussion,topic,subject,category,genre,news,entertainment,education,business,technology,science,health,sports,arts,culture,society,politics,religion,philosophy,history,storytelling,narrative,fiction,nonfiction,documentary,commentary
quora,question,answer,Q&A,knowledge,information,advice,opinion,experience,expertise,topic,subject,category,tag,user,profile,bio,credential,upvote,downvote,comment,share,follow,notification,feed,digest,newsletter,blog,stats,analytics,moderation,policy,guideline,spam,abuse
ravelry,knitting,crocheting,yarn,fiber,pattern,project,design,designer,store,shop,marketplace,community,group,forum,discussion,topic,event,challenge,contest,prize,giveaway,donation,charity,tutorial,video,photo,comment,like,favorite,queue,library,stash,needles,hooks,accessories
s15,section,sign,symbol,icon,marker,label,tag,indicator,code,reference,citation,footnote,endnote,chapter,verse,page,line,paragraph,heading,subheading,title,subtitle,caption,legend,key,note,comment,annotation,markup,formatting,style,syntax,element,attribute
shower,bathroom,hygiene,cleanliness,washing,bathing,water,soap,shampoo,conditioner,body,wash,loofah,sponge,towel,curtain,rod,head,faucet,drain,temperature,pressure,flow,steam,mist,spray,massage,relaxation,refreshment,rejuvenation,morning,evening,daily,routine
snowflake-o,winter,cold,ice,snow,frost,freeze,chill,crystal,flake,pattern,symmetry,beauty,nature,weather,season,holiday,christmas,decoration,ornament,theme,icon,symbol,logo,design,art,craft,paper,cut,fold,origami,stencil,template,vector,illustration
superpowers,abilities,skills,talents,strengths,powers,capabilities,potential,enhancement,improvement,development,training,practice,mastery,achievement,success,confidence,motivation,inspiration,role,model,mentor,coach,support,encouragement,challenge,competition,collaboration,teamwork,leadership,innovation,creativity,problem,solving
telegram,messaging,chat,communication,app,application,platform,service,instant,text,voice,video,photo,sticker,emoji,gif,file,document,link,group,channel,bot,api,encryption,privacy,security,sync,backup,cloud,desktop,mobile,web,notification,update,news,blog
thermometer,temperature,heat,cold,fever,health,medical,clinical,body,weather,climate,environment,cooking,food,safety,industrial,process,control,monitoring,measurement,sensor,probe,digital,analog,mercury,alcohol,infrared,laser,thermocouple,thermistor,rtd,calibration,accuracy
thermometer-0,temperature,heat,cold,fever,health,medical,clinical,body,weather,climate,environment,cooking,food,safety,industrial,process,control,monitoring,measurement,sensor,probe,digital,analog,mercury,alcohol,infrared,laser,thermocouple,thermistor,rtd,calibration,accuracy
thermometer-1,temperature,heat,cold,fever,health,medical,clinical,body,weather,climate,environment,cooking,food,safety,industrial,process,control,monitoring,measurement,sensor,probe,digital,analog,mercury,alcohol,infrared,laser,thermocouple,thermistor,rtd,calibration,accuracy
thermometer-2,temperature,heat,cold,fever,health,medical,clinical,body,weather,climate,environment,cooking,food,safety,industrial,process,control,monitoring,measurement,sensor,probe,digital,analog,mercury,alcohol,infrared,laser,thermocouple,thermistor,rtd,calibration,accuracy
thermometer-3,temperature,heat,cold,fever,health,medical,clinical,body,weather,climate,environment,cooking,food,safety,industrial,process,control,monitoring,measurement,sensor,probe,digital,analog,mercury,alcohol,infrared,laser,thermocouple,thermistor,rtd,calibration,accuracy
thermometer-4,temperature,heat,cold,fever,health,medical,clinical,body,weather,climate,environment,cooking,food,safety,industrial,process,control,monitoring,measurement,sensor,probe,digital,analog,mercury,alcohol,infrared,laser,thermocouple,thermistor,rtd,calibration,accuracy
thermometer-empty,temperature,heat,cold,fever,health,medical,clinical,body,weather,climate,environment,cooking,food,safety,industrial,process,control,monitoring,measurement,sensor,probe,digital,analog,mercury,alcohol,infrared,laser,thermocouple,thermistor,rtd,calibration,accuracy
thermometer-full,temperature,heat,cold,fever,health,medical,clinical,body,weather,climate,environment,cooking,food,safety,industrial,process,control,monitoring,measurement,sensor,probe,digital,analog,mercury,alcohol,infrared,laser,thermocouple,thermistor,rtd,calibration,accuracy
thermometer-half,temperature,heat,cold,fever,health,medical,clinical,body,weather,climate,environment,cooking,food,safety,industrial,process,control,monitoring,measurement,sensor,probe,digital,analog,mercury,alcohol,infrared,laser,thermocouple,thermistor,rtd,calibration,accuracy
thermometer-quarter,temperature,heat,cold,fever,health,medical,clinical,body,weather,climate,environment,cooking,food,safety,industrial,process,control,monitoring,measurement,sensor,probe,digital,analog,mercury,alcohol,infrared,laser,thermocouple,thermistor,rtd,calibration,accuracy
thermometer-three-quarters,temperature,heat,cold,fever,health,medical,clinical,body,weather,climate,environment,cooking,food,safety,industrial,process,control,monitoring,measurement,sensor,probe,digital,analog,mercury,alcohol,infrared,laser,thermocouple,thermistor,rtd,calibration,accuracy
times-rectangle,close,cancel,delete,remove,clear,dismiss,exit,quit,stop,end,terminate,abort,reject,decline,refuse,deny,block,hide,collapse,minimize,shrink,reduce,compress,trim,cut,crop,edit,modify,adjust,shape,resize,scale,transform,rotate,flip
times-rectangle-o,close,cancel,delete,remove,clear,dismiss,exit,quit,stop,end,terminate,abort,reject,decline,refuse,deny,block,hide,collapse,minimize,shrink,reduce,compress,trim,cut,crop,edit,modify,adjust,shape,resize,scale,transform,rotate,flip
user-circle,person,individual,human,profile,avatar,account,identity,face,head,portrait,photo,picture,image,icon,symbol,representation,user,member,subscriber,follower,fan,customer,client,patient,student,employee,staff,team,group,community,network,social,media
user-circle-o,person,individual,human,profile,avatar,account,identity,face,head,portrait,photo,picture,image,icon,symbol,representation,user,member,subscriber,follower,fan,customer,client,patient,student,employee,staff,team,group,community,network,social,media
user-o,person,individual,human,profile,avatar,account,identity,user,member,subscriber,follower,fan,customer,client,patient,student,employee,staff,team,group,community,network,social,media,icon,symbol,representation,generic,default,placeholder,anonymous,unknown,unspecified,undefined
vcard,contact,card,business,personal,information,details,name,title,company,position,address,phone,email,website,social,media,profile,qrcode,barcode,logo,photo,image,icon,design,template,layout,print,digital,share,exchange,collect,organize,manage
vcard-o,contact,card,business,personal,information,details,name,title,company,position,address,phone,email,website,social,media,profile,qrcode,barcode,logo,photo,image,icon,design,template,layout,print,digital,share,exchange,collect,organize,manage
window-close,close,exit,quit,dismiss,cancel,end,terminate,stop,finish,conclude,cease,eliminate,eradicate,discontinue,halt,shutting,closing,terminating,stopping,finishing,concluding,ceasing,eliminating,eradicating,discontinuing,halting,shut,closed,terminated,stopped,finished,concluded,ceased,eliminated,eradicated,discontinued,halted
window-close-o,close,exit,quit,dismiss,cancel,end,terminate,stop,finish,conclude,cease,eliminate,eradicate,discontinue,halt,shutting,closing,terminating,stopping,finishing,concluding,ceasing,eliminating,eradicating,discontinuing,halting,shut,closed,terminated,stopped,finished,concluded,ceased,eliminated,eradicated,discontinued,halted
window-maximize,expand,enlarge,increase,grow,amplify,extend,stretch,spread,maximize,full screen,zoom in,scale up,magnify,intensify,augment,broaden,widen,lengthen,heighten,deepen,thicken,swell,inflate,dilate,bloat,distend,bulge,protrude,project
window-minimize,reduce,decrease,shrink,contract,diminish,lessen,minimize,collapse,compress,condense,narrow,shorten,thin,abbreviate,abridge,curtail,truncate,trim,prune,clip,crop,cut,chop,slash,scale down,zoom out,iconify
window-restore,restore,recover,retrieve,regain,reclaim,repossess,get back,bring back,reinstate,reestablish,renew,revive,resurrect,resuscitate,revitalize,rejuvenate,regenerate,reactivate,refurbish,renovate,overhaul,reconstruct,rebuild,reassemble,recompose,reconstitute,recondition,rehabilitate
wpexplorer,WordPress,plugin,theme,extension,add-on,module,component,tool,utility,feature,functionality,enhancement,customization,modification,alteration,adaptation,integration,incorporation,inclusion,addition,supplement,complement,accessory,accompaniment,adjunct,appendage,attachment,extra,bonus
address-book,contacts,directory,phonebook,list,record,register,roll,catalog,index,inventory,database,repository,archive,library,collection,compilation,compendium,digest,anthology,almanac,encyclopedia,gazetteer,thesaurus,lexicon,glossary,vocabulary,dictionary,concordance,reference
address-book-o,contacts,directory,phonebook,list,record,register,roll,catalog,index,inventory,database,repository,archive,library,collection,compilation,compendium,digest,anthology,almanac,encyclopedia,gazetteer,thesaurus,lexicon,glossary,vocabulary,dictionary,concordance,reference
address-card,contact,information,details,particulars,specifics,facts,data,statistics,figures,numbers,credentials,identification,ID,profile,biography,background,history,record,file,dossier,portfolio,resume,CV,curriculum vitae,qualifications,references,recommendations,endorsements,testimonials
address-card-o,contact,information,details,particulars,specifics,facts,data,statistics,figures,numbers,credentials,identification,ID,profile,biography,background,history,record,file,dossier,portfolio,resume,CV,curriculum vitae,qualifications,references,recommendations,endorsements,testimonials
adjust,modify,alter,change,adapt,adjust,tweak,fine-tune,calibrate,regulate,control,manipulate,maneuver,operate,handle,manage,administer,oversee,supervise,direct,guide,steer,navigate,pilot,drive,conduct,lead,govern,rule,command,order,decree,ordain,dictate
american-sign-language-interpreting,ASL,sign language,interpretation,translation,communication,expression,gesture,motion,movement,signal,indication,symbol,emblem,token,representation,illustration,demonstration,display,exhibition,presentation,performance,rendition,portrayal,depiction,description,explanation,clarification,elucidation,exposition,explication
anchor,secure,fasten,fix,attach,connect,link,tie,bind,join,unite,combine,associate,relate,affiliate,ally,bond,cement,fuse,weld,solder,rivet,bolt,screw,nail,glue,paste,stick,adhere,affix,annex,append,moor,berth,dock
archive,store,save,preserve,conserve,retain,keep,hold,reserve,stockpile,hoard,accumulate,amass,collect,gather,assemble,compile,compose,constitute,form,organize,arrange,classify,categorize,catalog,index,list,record,register,chronicle,document,file,deposit,consign,relegate,commit
area-chart,graph,plot,diagram,chart,map,plan,scheme,outline,sketch,drawing,illustration,representation,depiction,picture,image,figure,table,matrix,grid,network,web,mesh,lattice,framework,structure,composition,configuration,arrangement,layout,design,pattern,motif,theme
arrows,direction,orientation,course,bearing,heading,aim,target,goal,objective,purpose,intent,intention,motive,reason,cause,basis,foundation,origin,source,root,beginning,start,commencement,initiation,inauguration,introduction,launch,debut,opening,onset,outset,dawn,rise,emergence,appearance,arrival
arrows-h,horizontal,side-to-side,left-right,east-west,lateral,sideways,crosswise,transverse,across,athwart,oblique,diagonal,slanting,sloping,inclined,tilted,angled,bent,curved,crooked,zigzag,winding,meandering,serpentine,sinuous,tortuous,convoluted,intricate,complex,complicated,involved,entangled,intertwined,interlaced,interwoven
arrows-v,vertical,up-down,top-bottom,north-south,perpendicular,upright,erect,standing,elevated,raised,lifted,hoisted,ascended,mounted,climbed,scaled,soared,towered,loomed,hovered,floated,drifted,glided,sailed,cruised,coasted,skimmed,slid,slipped,dropped,fell,plunged,plummeted,dived,descended,sank
asl-interpreting,ASL,sign language,interpretation,translation,communication,expression,gesture,motion,movement,signal,indication,symbol,emblem,token,representation,illustration,demonstration,display,exhibition,presentation,performance,rendition,portrayal,depiction,description,explanation,clarification,elucidation,exposition,explication
assistive-listening-systems,hearing aid,amplifier,microphone,headset,earpiece,earbud,speaker,loudspeaker,PA system,sound system,audio system,stereo,hi-fi,surround sound,acoustics,sonic,auditory,aural,phonic,phonetic,vocal,verbal,oral,spoken,linguistic,lingual,rhetorical,oratorical,elocutionary,declamatory,recitative,melodic,melodious,musical,harmonic,symphonic,orchestral
asterisk,star,asterisk,wildcard,placeholder,substitute,replacement,alternative,option,choice,selection,variety,assortment,diversity,range,spectrum,gamut,scope,extent,breadth,width,span,stretch,spread,expanse,area,zone,region,domain,realm,sphere,field,territory,province,district,county,parish
at,at,@,at sign,address,location,position,place,point,spot,site,venue,scene,setting,situation,context,circumstance,condition,state,status,mode,manner,method,way,style,fashion,form,shape,structure,arrangement,organization,order,sequence,progression,development,evolution,growth,change
audio-description,narration,commentary,explanation,description,interpretation,translation,exposition,explication,elucidation,clarification,illustration,demonstration,presentation,performance,rendition,portrayal,depiction,representation,expression,communication,transmission,broadcast,telecast,podcast,webcast,streaming,download,upload,transfer,sharing,distribution,dissemination,circulation,propagation
automobile,car,vehicle,motor,engine,machine,mechanism,apparatus,device,tool,instrument,implement,utensil,appliance,gadget,contraption,contrivance,invention,creation,production,manufacture,construction,fabrication,assembly,composition,structure,form,shape,design,style,model,type,kind,variety,brand,make
balance-scale,balance,equilibrium,stability,steadiness,poise,composure,equanimity,serenity,tranquility,calmness,placidity,imperturbability,self-possession,self-control,restraint,moderation,temperance,sobriety,frugality,economy,thrift,prudence,caution,circumspection,discretion,judgment,wisdom,sagacity,discernment,perception,insight,intuition,understanding,comprehension,reason,logic,analysis,synthesis
ban,prohibit,forbid,bar,exclude,preclude,prevent,stop,halt,cease,discontinue,terminate,end,finish,conclude,close,shut,seal,block,obstruct,hinder,impede,inhibit,restrain,restrict,limit,confine,circumscribe,demarcate,delimit,define,specify,stipulate,prescribe,dictate,impose,enforce,require,necessitate,obligate,compel
bank,financial institution,depository,repository,storehouse,treasury,vault,coffer,safe,strongbox,chest,cabinet,locker,compartment,drawer,receptacle,container,holder,housing,enclosure,envelope,package,parcel,bundle,packet,bale,load,cargo,freight,shipment,consignment,batch,lot,assortment,collection,accumulation,aggregation,conglomeration,mass,pile,heap,stack
bar-chart,graph,plot,diagram,chart,map,plan,scheme,outline,sketch,drawing,illustration,representation,depiction,picture,image,figure,table,matrix,grid,network,web,mesh,lattice,framework,structure,composition,configuration,arrangement,layout,design,pattern,motif,theme,subject,topic,matter,content,substance,material,data,information,statistics,facts,details,particulars,specifics
bar-chart-o,graph,plot,diagram,chart,map,plan,scheme,outline,sketch,drawing,illustration,representation,depiction,picture,image,figure,table,matrix,grid,network,web,mesh,lattice,framework,structure,composition,configuration,arrangement,layout,design,pattern,motif,theme,subject,topic,matter,content,substance,material,data,information,statistics,facts,details,particulars,specifics
barcode,code,symbol,sign,mark,label,tag,ticket,stub,coupon,voucher,token,emblem,badge,insignia,logo,trademark,brand,hallmark,stamp,seal,imprint,impression,engraving,etching,carving,sculpture,molding,casting,forging,stamping,printing,publishing,issuing,distributing,circulating,disseminating,propagating,spreading,diffusing,dispersing,scattering,strewing,sprinkling,sowing,planting
bars,lines,stripes,bands,strips,ribbons,tapes,cords,strings,threads,wires,cables,chains,links,segments,sections,divisions,partitions,compartments,cells,units,modules,components,elements,constituents,ingredients,parts,pieces,fragments,particles,bits,morsels,crumbs,specks,dots,points,spots,marks,symbols,signs,indications,signals,gestures,expressions,looks,appearances,aspects,features,characteristics,qualities,properties,attributes
bath,wash,clean,cleanse,purify,sanitize,disinfect,sterilize,decontaminate,detoxify,purge,expel,eject,eliminate,remove,extract,excise,cut out,amputate,sever,separate,isolate,segregate,exclude,banish,exile,deport,evict,expel,oust,dismiss,discharge,fire,terminate,end,finish,conclude,complete,accomplish,achieve,attain,reach,arrive at,come to,get to,make it to
bathtub,bath,tub,basin,sink,lavatory,washbasin,washbowl,washstand,vanity,countertop,cabinet,cupboard,closet,compartment,alcove,recess,niche,cranny,nook,corner,angle,bend,curve,arc,arch,vault,dome,canopy,awning,tent,marquee,pavilion,gazebo,pergola,arbor,trellis,lattice,grate,grid,screen,shield,barrier,wall,partition,divider,separator,fence,railing,balustrade,banister
battery,power,energy,force,strength,might,potency,vigor,vitality,life,spirit,essence,substance,material,matter,stuff,fuel,food,nourishment,sustenance,support,maintenance,preservation,conservation,storage,reserve,stock,supply,store,hoard,cache,accumulation,collection,aggregation,conglomeration,mass,pile,heap,stack,load,cargo,freight,shipment,consignment,batch,lot,assortment,variety,diversity,range,array,spectrum,gamut,scale,scope,extent,magnitude,dimension,size,capacity,volume,quantity,amount,number,count,total,sum,aggregate
battery-0,empty,drained,exhausted,depleted,spent,used up,consumed,finished,ended,concluded,completed,done,over,through,terminated,ceased,stopped,halted,paused,interrupted,suspended,deferred,postponed,delayed,retarded,hindered,impeded,obstructed,blocked,barred,prevented,precluded,excluded,eliminated,removed,extracted,withdrawn,taken out,pulled out,drawn out,sucked out,pumped out,siphoned out,drained out,emptied out,evacuated,vacated,abandoned,deserted,forsaken,relinquished,surrendered,yielded,given up,renounced,abdicated,resigned,retired,retreated,receded,backed off,withdrawn,disappeared
battery-1,low,weak,feeble,frail,fragile,delicate,tender,soft,gentle,mild,moderate,temperate,cool,cold,chilly,frigid,icy,frosty,frozen,numb,insensitive,unfeeling,indifferent,apathetic,listless,languid,sluggish,dull,blunt,obtuse,stupid,foolish,silly,absurd,ridiculous,ludicrous,preposterous,outrageous,shocking,appalling,horrible,terrible,awful,dreadful,fearful,frightful,formidable,tremendous,stupendous,prodigious,monstrous,gigantic,colossal,mammoth,enormous,immense,vast,huge,massive,bulky,heavy,weighty,ponderous,onerous,burdensome,oppressive,crushing,overwhelming,irresistible,invincible,insurmountable,unconquerable,invulnerable,impregnable,indestructible,immortal,eternal,everlasting,perpetual,endless,infinite,boundless,limitless,immeasurable,incalculable,innumerable,countless,myriad,multitudinous,numerous,many,several,various,diverse,manifold,multifarious,multiform,heterogeneous,miscellaneous,assorted,mixed,mingled,blended,combined,united,joined,associated,connected,linked,tied,bound,attached,fixed,fastened,adhered,stuck,glued,cemented,fused,welded,soldered,brazed,riveted,nailed,screwed,bolted,clamped,clasped,gripped,grasped,held,retained,kept,preserved,conserved,saved,stored,accumulated,collected,gathered,assembled,congregated,mustered,rallied,summoned,convened,convoked,called together,brought together,united,joined,associated,connected,linked,tied,bound,attached,fixed,fastened,adhered,stuck,glued,cemented,fused,welded,soldered,brazed,riveted,nailed,screwed,bolted,clamped,clasped,gripped,grasped,held,retained,kept,preserved,conserved,saved,stored,accumulated,collected,gathered,assembled,congregated,mustered,rallied,summoned,convened,convoked,called together,brought together
battery-2,half,partial,incomplete,unfinished,partial,fragmentary,fractional,divided,split,separated,disjoined,disconnected,detached,isolated,insulated,segregated,excluded,eliminated,removed,extracted,withdrawn,taken
battery-3,power,energy,charge,level,indicator,capacity,status,device,mobile,gadget,electronics,percentage,remaining,icon,symbol,battery,electricity,lithium-ion,rechargeable,portable,wireless,technology,volt,watt,current,storage,meter,gauge,fuel,reserve,life,duration,endurance,longevity,depletion,charging,discharging,empty,full,half
battery-4,power,energy,charge,level,indicator,capacity,status,device,mobile,gadget,electronics,percentage,remaining,icon,symbol,battery,electricity,lithium-ion,rechargeable,portable,wireless,technology,volt,watt,current,storage,meter,gauge,fuel,reserve,life,duration,endurance,longevity,depletion,charging,discharging,empty,full,maximum
battery-empty,power,energy,charge,level,indicator,capacity,status,device,mobile,gadget,electronics,percentage,remaining,icon,symbol,battery,electricity,lithium-ion,rechargeable,portable,wireless,technology,volt,watt,current,storage,meter,gauge,fuel,reserve,life,duration,endurance,longevity,depletion,charging,discharging,drained,low,critical
battery-full,power,energy,charge,level,indicator,capacity,status,device,mobile,gadget,electronics,percentage,remaining,icon,symbol,battery,electricity,lithium-ion,rechargeable,portable,wireless,technology,volt,watt,current,storage,meter,gauge,fuel,reserve,life,duration,endurance,longevity,completion,maximum,charged,complete,100%
battery-half,power,energy,charge,level,indicator,capacity,status,device,mobile,gadget,electronics,percentage,remaining,icon,symbol,battery,electricity,lithium-ion,rechargeable,portable,wireless,technology,volt,watt,current,storage,meter,gauge,fuel,reserve,life,duration,endurance,longevity,depletion,charging,discharging,50%,middle,moderate
battery-quarter,power,energy,charge,level,indicator,capacity,status,device,mobile,gadget,electronics,percentage,remaining,icon,symbol,battery,electricity,lithium-ion,rechargeable,portable,wireless,technology,volt,watt,current,storage,meter,gauge,fuel,reserve,life,duration,endurance,longevity,depletion,charging,discharging,25%,low,warning
battery-three-quarters,power,energy,charge,level,indicator,capacity,status,device,mobile,gadget,electronics,percentage,remaining,icon,symbol,battery,electricity,lithium-ion,rechargeable,portable,wireless,technology,volt,watt,current,storage,meter,gauge,fuel,reserve,life,duration,endurance,longevity,depletion,charging,discharging,75%,high,sufficient
bed,sleep,rest,relax,comfort,furniture,bedroom,mattress,pillow,sheets,blanket,nap,dream,slumber,snooze,doze,siesta,hibernate,cot,bunk,futon,hammock,divan,berth,lodge,inn,hotel,hostel,dormitory,hospital,clinic,recovery,therapy,treatment
beer,alcohol,drink,beverage,brew,lager,ale,stout,porter,malt,hops,yeast,fermentation,pub,bar,tavern,brewery,pint,stein,mug,glass,bottle,can,keg,tap,draft,craft,microbrewery,party,celebration,cheers,toast,hangover,intoxication,alcohol abuse,prohibition
bell,sound,ring,chime,ding,alarm,alert,notification,reminder,call,signal,announcement,warning,danger,emergency,school,church,wedding,funeral,clock,time,hour,minute,second,music,instrument,percussion,jingle,tinkle,toll,knell,carillon,gong,buzzer
bell-o,sound,ring,chime,ding,alarm,alert,notification,reminder,call,signal,announcement,warning,danger,emergency,school,church,wedding,funeral,clock,time,hour,minute,second,music,instrument,percussion,jingle,tinkle,toll,knell,carillon,gong,buzzer,outline,hollow
bell-slash,sound,ring,chime,ding,alarm,alert,notification,reminder,call,signal,announcement,warning,danger,emergency,school,church,wedding,funeral,clock,time,hour,minute,second,music,instrument,percussion,jingle,tinkle,toll,knell,carillon,gong,buzzer,mute,silence,quiet,disable,off
bell-slash-o,sound,ring,chime,ding,alarm,alert,notification,reminder,call,signal,announcement,warning,danger,emergency,school,church,wedding,funeral,clock,time,hour,minute,second,music,instrument,percussion,jingle,tinkle,toll,knell,carillon,gong,buzzer,mute,silence,quiet,disable,off,outline
bicycle,bike,cycle,ride,pedal,wheel,spoke,chain,gear,brake,handlebar,seat,saddle,frame,tire,tube,pump,helmet,lock,rack,trail,road,mountain,BMX,racing,commute,exercise,fitness,sport,leisure,transportation,eco-friendly,green,sustainable,healthy,fun
binoculars,see,look,view,watch,observe,spy,scope,glasses,lenses,magnify,zoom,focus,adjust,distant,far,away,horizon,landscape,scenery,nature,wildlife,bird,animal,hunt,military,navy,surveillance,reconnaissance,exploration,adventure,curiosity,vision,sight,perception
birthday-cake,celebration,party,anniversary,candles,wish,gift,present,surprise,happy,joy,festive,occasion,milestone,year,age,old,young,child,adult,family,friends,colleagues,office,home,restaurant,bakery,frosting,icing,decoration,flavor,chocolate,vanilla,strawberry,slice,piece
blind,sight,vision,impairment,disability,handicap,challenge,obstacle,barrier,limitation,darkness,shadow,shade,curtain,shutter,screen,cover,hide,conceal,block,obstruct,protect,shield,defend,secure,private,secret,mystery,unknown,unseen,invisible,faith,trust,intuition,perception
bluetooth,wireless,connection,communication,transfer,data,information,signal,device,gadget,mobile,phone,tablet,computer,laptop,headset,earphone,speaker,microphone,keyboard,mouse,game controller,printer,scanner,smart,home,car,audio,video,music,sound,voice,command,control,pair,connect,disconnect,range,distance
bluetooth-b,wireless,connection,communication,transfer,data,information,signal,device,gadget,mobile,phone,tablet,computer,laptop,headset,earphone,speaker,microphone,keyboard,mouse,game controller,printer,scanner,smart,home,car,audio,video,music,sound,voice,command,control,pair,connect,disconnect,range,distance,logo,symbol
bolt,lightning,thunder,storm,flash,strike,electricity,energy,power,voltage,current,charge,discharge,spark,shock,zap,jolt,surge,spike,pulse,frequency,amplitude,conductor,insulator,circuit,wire,cable,outlet,switch,fuse,breaker,transformer,generator,motor,engine,machine
bomb,explosion,blast,detonation,fire,smoke,debris,destruction,damage,injury,death,terror,fear,panic,chaos,emergency,evacuation,shelter,safety,security,police,military,war,conflict,threat,danger,risk,hazard,device,trigger,timer,fuse,dynamite,grenade,mine,missile,rocket,nuclear,atomic
book,read,write,learn,study,educate,inform,entertain,inspire,imagine,create,publish,print,bind,cover,page,chapter,paragraph,sentence,word,letter,alphabet,language,literature,fiction,nonfiction,genre,author,writer,reader,library,bookstore,school,university,knowledge,wisdom,intelligence,culture,history,science,art
bookmark,save,mark,tag,label,flag,note,remember,return,find,locate,organize,categorize,classify,sort,search,browse,navigate,web,internet,page,site,link,URL,favorite,star,heart,like,share,social,media,app,browser,extension,tool,utility,productivity,efficiency,convenience
bookmark-o,save,mark,tag,label,flag,note,remember,return,find,locate,organize,categorize,classify,sort,search,browse,navigate,web,internet,page,site,link,URL,favorite,star,heart,like,share,social,media,app,browser,extension,tool,utility,productivity,efficiency,convenience,outline,hollow
braille,tactile,touch,feel,read,write,communicate,language,alphabet,letter,word,sentence,paragraph,text,document,book,page,paper,screen,display,device,technology,accessibility,disability,blind,visually impaired,sight,vision,perception,sensory,input,output,translation,interpretation,learning,education,literacy,culture,diversity,inclusion
briefcase,work,job,career,business,profession,occupation,employment,office,workplace,company,organization,corporation,enterprise,industry,sector,market,economy,finance,trade,commerce,sales,marketing,management,leadership,executive,entrepreneur,freelance,consultant,contract,project,task,assignment,document,file,folder,portfolio,case,bag,luggage,travel
bug,insect,arthropod,pest,parasite,disease,infection,virus,bacteria,fungus,microbe,germ,pathogen,epidemic,pandemic,outbreak,spread,transmission,vector,host,carrier,reservoir,symptom,diagnosis,treatment,prevention,control,eradication,resistance,mutation,evolution,ecology,biodiversity,ecosystem,environment,nature,wildlife,entomology,zoology,biology
building,structure,construction,architecture,design,engineering,planning,development,real estate,property,land,site,location,space,area,volume,height,width,length,depth,floor,wall,roof,window,door,entrance,exit,elevator,stair,corridor,room,office,apartment,house,home,school,hospital,factory,warehouse,store,shop,restaurant,hotel,theater,museum,library,church,temple,mosque,stadium,arena,park,garden
building-o,structure,construction,architecture,design,engineering,planning,development,real estate,property,land,site,location,space,area,volume,height,width,length,depth,floor,wall,roof,window,door,entrance,exit,elevator,stair,corridor,room,office,apartment,house,home,school,hospital,factory,warehouse,store,shop,restaurant,hotel,theater,museum,library,church,temple,mosque,stadium,arena,park,garden,outline,hollow
bullhorn,loud,sound,volume,amplify,announce,proclaim,declare,shout,yell,scream,cry,call,signal,alarm,alert,warning,danger,emergency,attention,focus,direct,guide,lead,influence,persuade,convince,motivate,inspire,encourage,support,promote,advertise,market,sell,campaign,protest,demonstration,rally,march,strike,boycott,activism,advocacy,leadership,communication
bullseye,target,aim,goal,objective,purpose,intention,plan,strategy,tactic,method,approach,direction,focus,concentration,precision,accuracy,skill,ability,talent,gift,strength,advantage,success,achievement,accomplishment,victory,triumph,win,hit,strike,shoot,throw,toss,launch,fire,rocket,missile,bomb,explosion,blast,impact,damage,destruction,injury,death
bus,vehicle,transport,travel,journey,trip,tour,commute,shuttle,transit,public,mass,passenger,driver,conductor,fare,ticket,route,stop,station,terminal,depot,garage,fleet,network,system,infrastructure,traffic,congestion,delay,schedule,timetable,frequency,reliability,safety,accessibility,comfort,convenience,efficiency,sustainability,environment,energy,fuel,emission,pollution
cab,taxi,car,vehicle,transport,travel,journey,trip,tour,commute,shuttle,transit,public,mass,passenger,driver,conductor,fare,ticket,route,stop,station,terminal,depot,garage,fleet,network,system,infrastructure,traffic,congestion,delay,schedule,timetable,frequency,reliability,safety,accessibility,comfort,convenience,efficiency,sustainability,environment,energy,fuel,emission,pollution,hail,call,request,order,book,reserve,pay,tip,receipt
calculator,math,arithmetic,calculation,computation,operation,function,formula,equation,expression,variable,constant,number,digit,decimal,fraction,percent,ratio,proportion,scale,factor,exponent,logarithm,trigonometry,algebra,geometry,calculus,statistics,probability,data,analysis,modeling,simulation,prediction,estimation,approximation,precision,accuracy,error,uncertainty,scientific,engineering,financial,accounting,business,economics,commerce,trade,market,price,cost,value,profit,loss,tax,interest,discount,investment,budget,plan,strategy,decision,problem,solution
calendar,date,day,week,month,year,time,period,duration,interval,schedule,plan,agenda,timetable,calendar,appointment,event,meeting,deadline,due date,holiday,vacation,break,season,quarter,semester,term,academic,fiscal,financial,accounting,business,project,task,activity,reminder,notification,alert,alarm,synchronize,update,edit,delete,share,collaborate,organize,manage,track,monitor,report,analyze,visualize,present,communicate,print,publish,distribute,market,sell,promote
calendar-check-o,date,day,week,month,year,time,period,duration,interval,schedule,plan,agenda,timetable,calendar,appointment,event,meeting,deadline,due date,holiday,vacation,break,season,quarter,semester,term,academic,fiscal,financial,accounting,business,project,task,activity,reminder,notification,alert,alarm,synchronize,update,edit,delete,share,collaborate,organize,manage,track,monitor,report,analyze,visualize,present,communicate,print,publish,distribute,market,sell,promote,confirm,approve,accept,agree,verify,validate,certify,endorse,authorize,permit,allow
calendar-minus-o,date,day,week,month,year,time,period,duration,interval,schedule,plan,agenda,timetable,calendar,appointment,event,meeting,deadline,due date,holiday,vacation,break,season,quarter,semester,term,academic,fiscal,financial,accounting,business,project,task,activity,reminder,notification,alert,alarm,synchronize,update,edit,delete,share,collaborate,organize,manage,track,monitor,report,analyze,visualize,present,communicate,print,publish,distribute,market,sell,promote,remove,subtract,cancel,decline,reject,deny,prohibit,forbid,ban,block,exclude,eliminate,erase
calendar-o,date,day,week,month,year,time,period,duration,interval,schedule,plan,agenda,timetable,calendar,appointment,event,meeting,deadline,due date,holiday,vacation,break,season,quarter,semester,term,academic,fiscal,financial,accounting,business,project,task,activity,reminder,notification,alert,alarm,synchronize,update,edit,delete,share,collaborate,organize,manage,track,monitor,report,analyze,visualize,present,communicate,print,publish,distribute,market,sell,promote,outline,hollow,empty,blank,clear,reset,default,standard,regular,normal,plain,simple
calendar-plus-o,date,day,week,month,year,time,period,duration,interval,schedule,plan,agenda,timetable,calendar,appointment,event,meeting,deadline,due date,holiday,vacation,break,season,quarter,semester,term,academic,fiscal,financial,accounting,business,project,task,activity,reminder,notification,alert,alarm,synchronize,update,edit,delete,share,collaborate,organize,manage,track,monitor,report,analyze,visualize,present,communicate,print,publish,distribute,market,sell,promote,add,create,new,insert,append,attach,include,incorporate,integrate,combine
calendar-times-o,schedule,appointment,meeting,event,cancel,delete,remove,busy,unavailable,occupied,conflict,reschedule,postpone,calendar,date,time,agenda,planner,organizer,management,booking,reservation,timetable,deadline,reminder,notification,alert,decline,reject,clear,erase,block,overbooked,double-booked,overlap,clash,full,packed,hectic,overwhelmed
camera,photo,picture,image,snapshot,capture,shoot,lens,focus,aperture,shutter,flash,zoom,photography,photographer,DSLR,mirrorless,point-and-shoot,tripod,lighting,studio,portrait,landscape,nature,wildlife,macro,action,sports,event,wedding,journalism,film,digital,video,recording,memory,moment,keepsake,album,print
camera-retro,vintage,classic,old-fashioned,analog,film,35mm,rangefinder,SLR,manual,mechanical,nostalgia,retro,hipster,style,aesthetic,photography,photographer,hobby,collection,antique,history,legacy,tradition,craftsmanship,quality,timeless,iconic,legendary,cult,cool,trendy,fashion,art,creative,expression,unique,distinctive
car,vehicle,automobile,transportation,drive,ride,travel,commute,road,highway,traffic,parking,garage,fuel,gas,electric,hybrid,sedan,coupe,SUV,truck,van,convertible,sports,luxury,classic,vintage,rental,sharing,service,taxi,rideshare,carpool,navigation,GPS,map,destination,journey,trip,adventure,freedom,independence
caret-square-o-down,expand,reveal,show,open,dropdown,menu,options,choices,select,arrow,direction,down,below,underneath,lower,bottom,beneath,descend,fall,drop,collapse,minimize,hide,conceal,close,fold,compress,shrink,decrease,reduce,lessen,diminish,contract,deflate,shorten,abbreviate,summarize,condense,simplify,streamline
caret-square-o-left,previous,back,backward,return,undo,reverse,arrow,direction,left,before,prior,preceding,former,past,history,retrospective,flashback,memory,nostalgia,rewind,replay,repeat,loop,cycle,rotate,turn,pivot,swing,flip,invert,mirror,reflect,opposite,contrary,counterclockwise,anticlockwise,regress,retract,withdraw,retreat,recede
caret-square-o-right,next,forward,advance,proceed,continue,progress,arrow,direction,right,after,following,succeeding,future,prospect,anticipation,expectation,hope,aspiration,ambition,dream,vision,goal,objective,target,aim,destination,journey,adventure,exploration,discovery,revelation,epiphany,innovation,breakthrough,development,evolution,growth,expansion,increase,rise
caret-square-o-up,collapse,hide,close,minimize,shrink,arrow,direction,up,above,over,on top,upper,top,peak,summit,apex,zenith,crown,head,cap,lid,cover,roof,ceiling,sky,heaven,elevate,raise,lift,boost,increase,rise,ascend,climb,mount,scale,surpass,exceed,outdo,outperform,transcend,overcome,surmount,conquer,triumph,prevail,win
cart-arrow-down,shopping,purchase,buy,order,checkout,download,save,export,arrow,direction,down,decrease,reduce,lower,drop,fall,decline,shrink,minimize,compress,collapse,fold,condense,summarize,simplify,streamline,optimize,efficiency,productivity,automation,convenience,ease,simplicity,accessibility,affordability,bargain,discount,sale,clearance,liquidation,closeout,overstock,surplus,excess,remainder
cart-plus,shopping,purchase,buy,order,add,increase,more,extra,additional,supplement,append,attach,join,combine,unite,merge,integrate,incorporate,include,insert,introduce,expand,extend,enlarge,amplify,magnify,multiply,double,triple,quadruple,boost,enhance,improve,upgrade,update,customize,personalize,modify,adjust,adapt,tailor,optimize,maximize,fill,load,stock,supply
cc,creative commons,license,permission,attribution,share,remix,adapt,modify,use,distribute,copy,reproduce,legal,copyright,intellectual property,rights,ownership,authorship,credit,acknowledgment,recognition,citation,reference,source,origin,creator,maker,artist,author,writer,composer,musician,photographer,filmmaker,designer,developer,programmer,scientist,researcher,scholar,expert,authority,public domain,free,open,accessible,available,permissive,flexible
certificate,diploma,degree,license,certification,accreditation,qualification,credential,achievement,accomplishment,award,recognition,validation,verification,authentication,proof,evidence,document,record,paper,form,card,badge,seal,stamp,signature,notarization,attestation,testimony,witness,endorsement,recommendation,reference,voucher,guarantee,warranty,assurance,promise,pledge,oath,affirmation,confirmation,acknowledgment,approval,authorization,permission,consent,clearance
check,mark,tick,checkmark,yes,correct,right,true,accurate,valid,verified,confirmed,approved,accepted,passed,completed,finished,done,accomplished,achieved,fulfilled,satisfied,met,covered,included,present,available,existing,real,genuine,authentic,legitimate,legal,official,formal,proper,appropriate,suitable,adequate,sufficient,enough,ample,plentiful,abundant,substantial,significant,considerable,notable,important,essential,crucial,critical,vital,necessary,required,mandatory,obligatory,compulsory,imperative,urgent
check-circle,approve,confirm,verify,validate,certify,endorse,authorize,allow,permit,accept,agree,consent,acknowledge,recognize,affirm,assert,declare,state,pronounce,announce,proclaim,publish,broadcast,communicate,notify,inform,advise,recommend,suggest,propose,offer,provide,supply,deliver,submit,present,introduce,launch,release,deploy,implement,execute,perform,conduct,carry out,complete,accomplish,achieve,fulfill,satisfy,meet,exceed,surpass,outperform,excel,shine,succeed,win,triumph
check-circle-o,incomplete,unfinished,pending,progress,process,ongoing,underway,partial,half,mid,intermediate,transitional,temporary,provisional,tentative,conditional,contingent,dependent,uncertain,unsure,doubtful,questionable,debatable,controversial,disputed,contested,challenged,opposed,rejected,denied,refused,prohibited,banned,forbidden,illegal,unlawful,invalid,null,void,canceled,terminated,ended,concluded,resolved,settled,fixed,corrected,amended,revised,updated,improved,enhanced,optimized,refined,perfected
check-square,select,choose,pick,opt,prefer,favor,like,approve,endorse,recommend,suggest,propose,nominate,appoint,assign,allocate,distribute,divide,split,separate,segregate,categorize,classify,sort,arrange,organize,order,rank,prioritize,highlight,emphasize,focus,concentrate,target,aim,goal,objective,purpose,intention,plan,strategy,tactic,approach,method,technique,procedure,process,step,action,task,activity,job,work,project,mission,quest,challenge,problem,puzzle,mystery,riddle,question
check-square-o,unchecked,unselected,unchosen,unpreferred,unfavored,unliked,unapproved,unendorsed,unrecommended,unsuggested,unproposed,unnominated,unappointed,unassigned,unallocated,undistributed,undivided,unseparated,unsegregated,uncategorized,unclassified,unsorted,unarranged,unorganized,unordered,unranked,unprioritized,unhighlighted,unemphasized,unfocused,unconcentrated,untargeted,unaimed,ungoaled,unobjective,unpurposed,unintended,unplanned,unstrategic,untactical,unapproached,unmethodical,untechnical,unprocedural,unprocessed,unstepped,unactioned,untasked,unactivated,unjobbed,unworked,unprojected,unmissioned,unquested,unchallenged,unproblemed,unpuzzled,unmysteried,unriddled,unquestioned
child,kid,youth,minor,juvenile,adolescent,teen,teenager,student,pupil,toddler,infant,baby,newborn,offspring,descendant,heir,successor,progeny,posterity,lineage,generation,family,relative,sibling,brother,sister,son,daughter,nephew,niece,grandchild,innocence,purity,naivety,simplicity,curiosity,wonder,imagination,creativity,playfulness,joy,happiness,laughter,fun,games,toys,learning,growth,development,education,nurture,care,protection,safety,health,well-being
circle,round,circular,ring,loop,hoop,wheel,disk,sphere,globe,ball,orb,oval,ellipse,arc,curve,bend,turn,rotation,revolution,cycle,orbit,circuit,circumference,diameter,radius,center,middle,core,heart,focus,target,aim,goal,objective,purpose,intention,plan,strategy,tactic,approach,method,technique,procedure,process,step,action,task,activity,job,work,project,mission,quest,challenge,problem,puzzle,mystery,riddle,question
circle-o,incomplete,unfinished,partial,half,empty,hollow,void,blank,clear,transparent,open,free,available,unused,untouched,pristine,pure,clean,fresh,new,original,unique,special,rare,scarce,limited,finite,temporary,transient,ephemeral,fleeting,brief,short,quick,fast,rapid,swift,speedy,prompt,immediate,instant,sudden,abrupt,unexpected,surprising,shocking,startling,alarming,disturbing,troubling,worrying,concerning,serious,critical,urgent,pressing,important,significant,crucial,vital,essential,necessary,required,needed
circle-o-notch,loading,progress,processing,waiting,pending,buffering,streaming,downloading,uploading,transferring,syncing,updating,refreshing,reloading,restoring,recovering,resuming,continuing,proceeding,advancing,moving,shifting,changing,transforming,converting,adapting,adjusting,modifying,altering,editing,revising,correcting,fixing,repairing,maintaining,servicing,supporting,assisting,helping,aiding,facilitating,enabling,empowering,strengthening,reinforcing,enhancing,improving,optimizing,maximizing,boosting,accelerating,speeding up,expediting,simplifying,streamlining,automating,mechanizing,digitizing,computerizing
circle-thin,outline,contour,edge,border,boundary,limit,margin,periphery,circumference,perimeter,frame,skeleton,structure,framework,foundation,base,core,essence,substance,content,matter,material,element,component,part,piece,unit,segment,section,division,portion,fraction,fragment,particle,atom,molecule,cell,organ,system,network,web,mesh,grid,matrix,pattern,design,composition,arrangement,organization,configuration,formation,shape,form,figure,image,picture,representation,symbol,sign,mark,indication,clue,hint,suggestion,implication
clock-o,time,hour,minute,second,moment,instant,duration,period,interval,span,length,term,phase,stage,step,point,juncture,occasion,instance,occurrence,event,happening,incident,situation,circumstance,condition,state,status,position,location,place,scene,setting,environment,context,background,surroundings,atmosphere,ambiance,mood,feeling,emotion,sentiment,attitude,outlook,perspective,view,opinion,belief,thought,idea,concept,notion,impression,perception,awareness,consciousness,mind,psyche,soul,spirit,essence,nature,character,personality,identity,self,ego,individuality
clone,copy,duplicate,replicate,reproduce,imitate,mimic,emulate,simulate,model,template,pattern,prototype,original,source,master,parent,ancestor,predecessor,progenitor,creator,maker,author,designer,developer,programmer,engineer,scientist,researcher,expert,specialist,professional,practitioner,artist,craftsman,artisan,maker,builder,constructor,fabricator,manufacturer,producer,supplier,vendor,distributor,retailer,wholesaler,trader,merchant,dealer,broker,agent,representative,intermediary,middleman,facilitator,coordinator,organizer,manager,administrator,executive,officer,director,supervisor,leader,head,chief,principal,president,founder,entrepreneur
close,shut,end,finish,complete,conclude,terminate,stop,cease,discontinue,suspend,pause,interrupt,break,halt,arrest,block,barricade,obstruct,impede,hinder,prevent,prohibit,forbid,ban,exclude,eliminate,remove,delete,erase,cancel,annul,void,nullify,invalidate,revoke,withdraw,retract,recall,undo,reverse,backtrack,retreat,withdraw,leave,depart,exit,escape,flee,abandon,desert,forsake,relinquish,surrender,yield,submit,comply,obey,follow,adhere,conform,adapt,adjust,accommodate,fit,match,correspond,agree,accord,harmonize,reconcile,resolve,settle,fix,repair,correct,amend,revise,edit,modify,alter,change,transform,convert,shift,move,transfer,relocate,replace,substitute,exchange,swap,trade
cloud,sky,air,atmosphere,weather,climate,environment,nature,outdoors,outside,external,remote,distant,far,away,separate,detached,independent,autonomous,self-sufficient,self-reliant,free,open,public,shared,common,collective,collaborative,cooperative,social,communal,global,universal,ubiquitous,pervasive,widespread,prevalent,popular,mainstream,dominant,leading,top,best,superior,excellent,outstanding,exceptional,extraordinary,remarkable,notable,significant,important,valuable,useful,beneficial,advantageous,helpful,supportive,assistive,enabling,empowering,facilitating,promoting,encouraging,inspiring,motivating,stimulating,exciting,interesting,engaging,attractive,appealing,desirable,sought-after,in-demand,trendy,fashionable,stylish,cool,hip,chic,modern,contemporary,cutting-edge,advanced,progressive,innovative,creative,original,unique,novel,fresh,new,young,youthful,dynamic,energetic,active,lively,vibrant,vivid,bright,colorful
cloud-download,data,information,content,files,documents,media,audio,video,images,photos,graphics,text,code,software,programs,applications,apps,services,resources,assets,materials,supplies,goods,products,merchandise,items,objects,things,stuff,elements,components,parts,pieces,bits,bytes,packets,streams,flows,transfers,transmissions,communications,interactions,transactions,exchanges,trades,commerce,business,enterprise,organization,company,corporation,firm,establishment,institution,agency,bureau,department,division,unit,group,team,club,society,association,community,network,system,platform,infrastructure,architecture,framework,foundation,base,core,heart,center,hub,node,point,junction,intersection,crossing,bridge,link,connection,relation,association,correlation,dependence,influence,impact,effect,result,consequence,outcome,output,product,creation,generation,production,development,evolution,growth,expansion,increase,rise,improvement,enhancement,optimization,refinement,perfection,completion,fulfillment,achievement,success,victory,triumph
cloud-upload,data,information,content,files,documents,media,audio,video,images,photos,graphics,text,code,software,programs,applications,apps,services,resources,assets,materials,supplies,goods,products,merchandise,items,objects,things,stuff,elements,components,parts,pieces,bits,bytes,packets,streams,flows,transfers,transmissions,communications,interactions,transactions,exchanges,trades,commerce,business,enterprise,organization,company,corporation,firm,establishment,institution,agency